[{"OBJECT_NAME":"ONEWEB-0458","OBJECT_ID":"2022-012AC","EPOCH":"2026-01-16T03:52:04.710432","MEAN_MOTION":13.10373027,"ECCENTRICITY":0.00018939,"INCLINATION":87.8777,"RA_OF_ASC_NODE":66.5567,"ARG_OF_PERICENTER":95.1975,"MEAN_ANOMALY":264.9369,"EPHEMERIS_TYPE":0,"CLASSIFICATION_TYPE":"U","NORAD_CAT_ID":51648,"ELEMENT_SET_NO":999,"REV_AT_EPOCH":18939,"BSTAR":-0.0018193424,"MEAN_MOTION_DOT":-6.22e-6,"MEAN_MOTION_DDOT":0},{"OBJECT_NAME":"ONEWEB-0461","OBJECT_ID":"2022-012AD","EPOCH":"2026-01-16T06:44:22.573248","MEAN_MOTION":13.17650923,"ECCENTRICITY":0.00018178,"INCLINATION":87.9093,"RA_OF_ASC_NODE":36.0379,"ARG_OF_PERICENTER":97.0189,"MEAN_ANOMALY":263.115,"EPHEMERIS_TYPE":0,"CLASSIFICATION_TYPE":"U","NORAD_CAT_ID":51649,"ELEMENT_SET_NO":999,"REV_AT_EPOCH":19388,"BSTAR":1.7147877e-5,"MEAN_MOTION_DOT":2.0e-7,"MEAN_MOTION_DDOT":0},{"OBJECT_NAME":"ONEWEB-0463","OBJECT_ID":"2022-012AE","EPOCH":"2026-01-16T00:49:37.023456","MEAN_MOTION":13.17652924,"ECCENTRICITY":0.00018309,"INCLINATION":87.9076,"RA_OF_ASC_NODE":36.1248,"ARG_OF_PERICENTER":94.8864,"MEAN_ANOMALY":265.2476,"EPHEMERIS_TYPE":0,"CLASSIFICATION_TYPE":"U","NORAD_CAT_ID":51650,"ELEMENT_SET_NO":999,"REV_AT_EPOCH":19363,"BSTAR":-0.0017459218,"MEAN_MOTION_DOT":-6.65e-6,"MEAN_MOTION_DDOT":0},{"OBJECT_NAME":"ONEWEB-0464","OBJECT_ID":"2022-012AF","EPOCH":"2026-01-16T03:47:17.650752","MEAN_MOTION":13.10372435,"ECCENTRICITY":0.00015633,"INCLINATION":87.8768,"RA_OF_ASC_NODE":66.5899,"ARG_OF_PERICENTER":94.9125,"MEAN_ANOMALY":265.2181,"EPHEMERIS_TYPE":0,"CLASSIFICATION_TYPE":"U","NORAD_CAT_ID":51651,"ELEMENT_SET_NO":999,"REV_AT_EPOCH":18941,"BSTAR":-0.0016289208,"MEAN_MOTION_DOT":-5.56e-6,"MEAN_MOTION_DDOT":0},{"OBJECT_NAME":"ONEWEB-0468","OBJECT_ID":"2022-012AG","EPOCH":"2026-01-16T03:56:51.494496","MEAN_MOTION":13.1037403,"ECCENTRICITY":0.0001748,"INCLINATION":87.8776,"RA_OF_ASC_NODE":66.5827,"ARG_OF_PERICENTER":92.8695,"MEAN_ANOMALY":267.2633,"EPHEMERIS_TYPE":0,"CLASSIFICATION_TYPE":"U","NORAD_CAT_ID":51652,"ELEMENT_SET_NO":999,"REV_AT_EPOCH":18939,"BSTAR":-0.0017610323,"MEAN_MOTION_DOT":-6.02e-6,"MEAN_MOTION_DDOT":0},{"OBJECT_NAME":"ONEWEB-0473","OBJECT_ID":"2022-012AH","EPOCH":"2026-01-16T03:35:21.029280","MEAN_MOTION":13.10370914,"ECCENTRICITY":0.00018271,"INCLINATION":87.8768,"RA_OF_ASC_NODE":66.5885,"ARG_OF_PERICENTER":95.7674,"MEAN_ANOMALY":264.3662,"EPHEMERIS_TYPE":0,"CLASSIFICATION_TYPE":"U","NORAD_CAT_ID":51653,"ELEMENT_SET_NO":999,"REV_AT_EPOCH":18939,"BSTAR":-0.00090267689,"MEAN_MOTION_DOT":-3.02e-6,"MEAN_MOTION_DDOT":0},{"OBJECT_NAME":"ONEWEB-0474","OBJECT_ID":"2022-012AJ","EPOCH":"2026-01-16T03:23:24.570240","MEAN_MOTION":13.10370517,"ECCENTRICITY":0.00016693,"INCLINATION":87.8777,"RA_OF_ASC_NODE":66.5592,"ARG_OF_PERICENTER":90.7423,"MEAN_ANOMALY":269.3896,"EPHEMERIS_TYPE":0,"CLASSIFICATION_TYPE":"U","NORAD_CAT_ID":51654,"ELEMENT_SET_NO":999,"REV_AT_EPOCH":18938,"BSTAR":0.00032144451,"MEAN_MOTION_DOT":1.25e-6,"MEAN_MOTION_DDOT":0},{"OBJECT_NAME":"ONEWEB-0475","OBJECT_ID":"2022-012AK","EPOCH":"2026-01-16T06:34:39.634176","MEAN_MOTION":13.17648891,"ECCENTRICITY":0.00019616,"INCLINATION":87.9083,"RA_OF_ASC_NODE":36.0684,"ARG_OF_PERICENTER":71.6414,"MEAN_ANOMALY":288.4931,"EPHEMERIS_TYPE":0,"CLASSIFICATION_TYPE":"U","NORAD_CAT_ID":51655,"ELEMENT_SET_NO":999,"REV_AT_EPOCH":19368,"BSTAR":0.00014866428,"MEAN_MOTION_DOT":7.1e-7,"MEAN_MOTION_DDOT":0},{"OBJECT_NAME":"ONEWEB-0490","OBJECT_ID":"2022-138A","EPOCH":"2026-01-16T02:55:33.873312","MEAN_MOTION":13.19726184,"ECCENTRICITY":0.00016426,"INCLINATION":87.9241,"RA_OF_ASC_NODE":335.219,"ARG_OF_PERICENTER":75.2034,"MEAN_ANOMALY":284.9281,"EPHEMERIS_TYPE":0,"CLASSIFICATION_TYPE":"U","NORAD_CAT_ID":54113,"ELEMENT_SET_NO":999,"REV_AT_EPOCH":15677,"BSTAR":-4.2700632e-5,"MEAN_MOTION_DOT":-4.0e-8,"MEAN_MOTION_DDOT":0},{"OBJECT_NAME":"ONEWEB-0492","OBJECT_ID":"2022-138B","EPOCH":"2026-01-16T07:10:17.737824","MEAN_MOTION":13.19725047,"ECCENTRICITY":0.00015656,"INCLINATION":87.9234,"RA_OF_ASC_NODE":335.1962,"ARG_OF_PERICENTER":79.7573,"MEAN_ANOMALY":280.3736,"EPHEMERIS_TYPE":0,"CLASSIFICATION_TYPE":"U","NORAD_CAT_ID":54114,"ELEMENT_SET_NO":999,"REV_AT_EPOCH":15680,"BSTAR":0.0003373326,"MEAN_MOTION_DOT":1.48e-6,"MEAN_MOTION_DDOT":0},{"OBJECT_NAME":"ONEWEB-0495","OBJECT_ID":"2022-138C","EPOCH":"2026-01-16T06:38:27.443328","MEAN_MOTION":13.19726376,"ECCENTRICITY":0.00014986,"INCLINATION":87.9231,"RA_OF_ASC_NODE":335.2032,"ARG_OF_PERICENTER":57.849,"MEAN_ANOMALY":302.2788,"EPHEMERIS_TYPE":0,"CLASSIFICATION_TYPE":"U","NORAD_CAT_ID":54115,"ELEMENT_SET_NO":999,"REV_AT_EPOCH":15678,"BSTAR":-3.1437726e-5,"MEAN_MOTION_DOT":0,"MEAN_MOTION_DDOT":0},{"OBJECT_NAME":"ONEWEB-0497","OBJECT_ID":"2022-138D","EPOCH":"2026-01-16T03:18:18.578592","MEAN_MOTION":13.19725722,"ECCENTRICITY":0.0001719,"INCLINATION":87.9237,"RA_OF_ASC_NODE":335.2195,"ARG_OF_PERICENTER":78.3383,"MEAN_ANOMALY":281.7943,"EPHEMERIS_TYPE":0,"CLASSIFICATION_TYPE":"U","NORAD_CAT_ID":54116,"ELEMENT_SET_NO":999,"REV_AT_EPOCH":15675,"BSTAR":3.8720746e-5,"MEAN_MOTION_DOT":2.8e-7,"MEAN_MOTION_DDOT":0},{"OBJECT_NAME":"ONEWEB-0499","OBJECT_ID":"2022-138E","EPOCH":"2026-01-16T06:32:45.593088","MEAN_MOTION":13.19724635,"ECCENTRICITY":0.00018286,"INCLINATION":87.9233,"RA_OF_ASC_NODE":335.2034,"ARG_OF_PERICENTER":75.9451,"MEAN_ANOMALY":284.1885,"EPHEMERIS_TYPE":0,"CLASSIFICATION_TYPE":"U","NORAD_CAT_ID":54117,"ELEMENT_SET_NO":999,"REV_AT_EPOCH":15678,"BSTAR":1.6052842e-5,"MEAN_MOTION_DOT":1.9e-7,"MEAN_MOTION_DDOT":0},{"OBJECT_NAME":"ONEWEB-0500","OBJECT_ID":"2022-138F","EPOCH":"2026-01-16T02:57:50.115744","MEAN_MOTION":13.19727078,"ECCENTRICITY":0.0001747,"INCLINATION":87.9235,"RA_OF_ASC_NODE":335.2221,"ARG_OF_PERICENTER":83.3627,"MEAN_ANOMALY":276.7705,"EPHEMERIS_TYPE":0,"CLASSIFICATION_TYPE":"U","NORAD_CAT_ID":54118,"ELEMENT_SET_NO":999,"REV_AT_EPOCH":15677,"BSTAR":-0.0001053959,"MEAN_MOTION_DOT":-2.9e-7,"MEAN_MOTION_DDOT":0},{"OBJECT_NAME":"ONEWEB-0501","OBJECT_ID":"2022-138G","EPOCH":"2026-01-16T07:19:24.385440","MEAN_MOTION":13.19726607,"ECCENTRICITY":0.00016384,"INCLINATION":87.9237,"RA_OF_ASC_NODE":335.1871,"ARG_OF_PERICENTER":69.2225,"MEAN_ANOMALY":290.9083,"EPHEMERIS_TYPE":0,"CLASSIFICATION_TYPE":"U","NORAD_CAT_ID":54119,"ELEMENT_SET_NO":999,"REV_AT_EPOCH":15677,"BSTAR":0.00012979838,"MEAN_MOTION_DOT":6.5e-7,"MEAN_MOTION_DDOT":0},{"OBJECT_NAME":"ONEWEB-0502","OBJECT_ID":"2022-138H","EPOCH":"2026-01-16T06:58:56.110080","MEAN_MOTION":13.19725146,"ECCENTRICITY":0.00017834,"INCLINATION":87.9241,"RA_OF_ASC_NODE":335.171,"ARG_OF_PERICENTER":71.2433,"MEAN_ANOMALY":288.8893,"EPHEMERIS_TYPE":0,"CLASSIFICATION_TYPE":"U","NORAD_CAT_ID":54120,"ELEMENT_SET_NO":999,"REV_AT_EPOCH":15679,"BSTAR":0.00013816478,"MEAN_MOTION_DOT":6.8e-7,"MEAN_MOTION_DDOT":0},{"OBJECT_NAME":"ONEWEB-0503","OBJECT_ID":"2022-138J","EPOCH":"2026-01-16T06:43:00.937344","MEAN_MOTION":13.19725433,"ECCENTRICITY":0.00020503,"INCLINATION":87.924,"RA_OF_ASC_NODE":335.1769,"ARG_OF_PERICENTER":78.7846,"MEAN_ANOMALY":281.3517,"EPHEMERIS_TYPE":0,"CLASSIFICATION_TYPE":"U","NORAD_CAT_ID":54121,"ELEMENT_SET_NO":999,"REV_AT_EPOCH":15678,"BSTAR":0.00014114175,"MEAN_MOTION_DOT":6.9e-7,"MEAN_MOTION_DDOT":0}]
