ONEWEB-0458             
1 51648U 22012AC  26016.16116563 -.00000622  00000+0 -18193-2 0  9990
2 51648  87.8777  66.5567 0001893  95.1975 264.9369 13.10373027189398
ONEWEB-0461             
1 51649U 22012AD  26016.28081682  .00000020  00000+0  17148-4 0  9998
2 51649  87.9093  36.0379 0001817  97.0189 263.1150 13.17650923193886
ONEWEB-0463             
1 51650U 22012AE  26016.03445629 -.00000665  00000+0 -17459-2 0  9998
2 51650  87.9076  36.1248 0001830  94.8864 265.2476 13.17652924193635
ONEWEB-0464             
1 51651U 22012AF  26016.15784318 -.00000556  00000+0 -16289-2 0  9992
2 51651  87.8768  66.5899 0001563  94.9125 265.2181 13.10372435189419
ONEWEB-0468             
1 51652U 22012AG  26016.16448489 -.00000602  00000+0 -17610-2 0  9991
2 51652  87.8776  66.5827 0001748  92.8695 267.2633 13.10374030189398
ONEWEB-0473             
1 51653U 22012AH  26016.14954895 -.00000302  00000+0 -90268-3 0  9991
2 51653  87.8768  66.5885 0001827  95.7674 264.3662 13.10370914189398
ONEWEB-0474             
1 51654U 22012AJ  26016.14125660  .00000125  00000+0  32144-3 0  9992
2 51654  87.8777  66.5592 0001669  90.7423 269.3896 13.10370517189387
ONEWEB-0475             
1 51655U 22012AK  26016.27406984  .00000071  00000+0  14866-3 0  9999
2 51655  87.9083  36.0684 0001961  71.6414 288.4931 13.17648891193686
ONEWEB-0490             
1 54113U 22138A   26016.12191983 -.00000004  00000+0 -42701-4 0  9992
2 54113  87.9241 335.2190 0001642  75.2034 284.9281 13.19726184156776
ONEWEB-0492             
1 54114U 22138B   26016.29881641  .00000148  00000+0  33733-3 0  9999
2 54114  87.9234 335.1962 0001565  79.7573 280.3736 13.19725047156802
ONEWEB-0495             
1 54115U 22138C   26016.27670652  .00000000  00000+0 -31438-4 0  9995
2 54115  87.9231 335.2032 0001498  57.8490 302.2788 13.19726376156783
ONEWEB-0497             
1 54116U 22138D   26016.13771503  .00000028  00000+0  38721-4 0  9999
2 54116  87.9237 335.2195 0001719  78.3383 281.7943 13.19725722156750
ONEWEB-0499             
1 54117U 22138E   26016.27274992  .00000019  00000+0  16053-4 0  9999
2 54117  87.9233 335.2034 0001828  75.9451 284.1885 13.19724635156786
ONEWEB-0500             
1 54118U 22138F   26016.12349671 -.00000029  00000+0 -10540-3 0  9998
2 54118  87.9235 335.2221 0001747  83.3627 276.7705 13.19727078156776
ONEWEB-0501             
1 54119U 22138G   26016.30514335  .00000065  00000+0  12980-3 0  9998
2 54119  87.9237 335.1871 0001638  69.2225 290.9083 13.19726607156779
ONEWEB-0502             
1 54120U 22138H   26016.29092720  .00000068  00000+0  13816-3 0  9999
2 54120  87.9241 335.1710 0001783  71.2433 288.8893 13.19725146156797
ONEWEB-0503             
1 54121U 22138J   26016.27987196  .00000069  00000+0  14114-3 0  9991
2 54121  87.9240 335.1769 0002050  78.7846 281.3517 13.19725433156788
